start=new Date('2022-05-23T00:00:00.000Z').valueOf();
sats=[{"TLE_LINE1":"1 48395U 21038AU  22142.58936857  .00002006  00000-0  16352-3 0  9993","SITE":"AFETR","OBJECT_ID":"2021-038AU","CENTER_NAME":"EARTH","GP_ID":"204281557","ELEMENT_SET_NO":"999","SEMIMAJOR_AXIS":"6932.859","OBJECT_NAME":"STARLINK-2574","MEAN_ANOMALY":"301.4494","APOAPSIS":"555.979","DECAY_DATE":null,"BSTAR":"0.00016352000000","MEAN_MOTION":"15.03952949","TIME_SYSTEM":"UTC","NORAD_CAT_ID":"48395","COUNTRY_CODE":"US","TLE_LINE2":"2 48395  53.0561  88.8049 0001811  58.6671 301.4494 15.03952949 59457","FILE":"3459268","REV_AT_EPOCH":"5945","MEAN_MOTION_DOT":"0.00002006","RCS_SIZE":"LARGE","EPHEMERIS_TYPE":"0","RA_OF_ASC_NODE":"88.8049","CLASSIFICATION_TYPE":"U","REF_FRAME":"TEME","PERIAPSIS":"553.468","ARG_OF_PERICENTER":"58.6671","EPOCH":"2022-05-22T14:08:41.444448","INCLINATION":"53.0561","PERIOD":"95.748","MEAN_MOTION_DDOT":"0.0000000000000","ECCENTRICITY":"0.00018110","OBJECT_TYPE":"PAYLOAD","LAUNCH_DATE":"2021-05-04","MEAN_ELEMENT_THEORY":"SGP4"},{"SITE":"AFETR","TLE_LINE1":"1 48396U 21038AV  22142.57770421  .00000685  00000-0  64869-4 0  9994","GP_ID":"204281803","CENTER_NAME":"EARTH","OBJECT_ID":"2021-038AV","OBJECT_NAME":"STARLINK-2575","MEAN_ANOMALY":"308.1962","DECAY_DATE":null,"APOAPSIS":"548.719","BSTAR":"0.00006486900000","ELEMENT_SET_NO":"999","SEMIMAJOR_AXIS":"6925.331","NORAD_CAT_ID":"48396","TIME_SYSTEM":"UTC","MEAN_MOTION":"15.06405842","RA_OF_ASC_NODE":"88.6160","EPHEMERIS_TYPE":"0","MEAN_MOTION_DOT":"0.00000685","FILE":"3459268","REV_AT_EPOCH":"5945","RCS_SIZE":"LARGE","TLE_LINE2":"2 48396  53.0557  88.6160 0002200  51.9225 308.1962 15.06405842 59451","COUNTRY_CODE":"US","PERIAPSIS":"545.672","REF_FRAME":"TEME","CLASSIFICATION_TYPE":"U","EPOCH":"2022-05-22T13:51:53.643744","INCLINATION":"53.0557","ARG_OF_PERICENTER":"51.9225","MEAN_ELEMENT_THEORY":"SGP4","LAUNCH_DATE":"2021-05-04","MEAN_MOTION_DDOT":"0.0000000000000","PERIOD":"95.592","ECCENTRICITY":"0.00022000","OBJECT_TYPE":"PAYLOAD"},{"INCLINATION":"53.0562","EPOCH":"2022-05-22T13:46:36.039072","ARG_OF_PERICENTER":"59.3016","MEAN_ELEMENT_THEORY":"SGP4","MEAN_MOTION_DDOT":"0.0000000000000","PERIOD":"95.593","ECCENTRICITY":"0.00014700","OBJECT_TYPE":"PAYLOAD","LAUNCH_DATE":"2021-05-04","EPHEMERIS_TYPE":"0","RA_OF_ASC_NODE":"88.6299","COUNTRY_CODE":"US","TLE_LINE2":"2 48397  53.0562  88.6299 0001470  59.3016 300.8117 15.06393079 59458","FILE":"3459268","REV_AT_EPOCH":"5945","MEAN_MOTION_DOT":"0.00001478","RCS_SIZE":"LARGE","PERIAPSIS":"546.217","REF_FRAME":"TEME","CLASSIFICATION_TYPE":"U","OBJECT_NAME":"STARLINK-2590","MEAN_ANOMALY":"300.8117","DECAY_DATE":null,"BSTAR":"0.00011809000000","APOAPSIS":"548.253","ELEMENT_SET_NO":"999","SEMIMAJOR_AXIS":"6925.370","TIME_SYSTEM":"UTC","NORAD_CAT_ID":"48397","MEAN_MOTION":"15.06393079","TLE_LINE1":"1 48397U 21038AW  22142.57402823  .00001478  00000-0  11809-3 0  9999","SITE":"AFETR","CENTER_NAME":"EARTH","GP_ID":"204280060","OBJECT_ID":"2021-038AW"},{"TLE_LINE1":"1 48398U 21038AX  22142.57033624  .00003347  00000-0  24345-3 0  9995","SITE":"AFETR","CENTER_NAME":"EARTH","GP_ID":"204280310","OBJECT_ID":"2021-038AX","DECAY_DATE":null,"APOAPSIS":"548.599","BSTAR":"0.00024345000000","OBJECT_NAME":"STARLINK-2588","MEAN_ANOMALY":"306.6626","SEMIMAJOR_AXIS":"6925.334","ELEMENT_SET_NO":"999","TIME_SYSTEM":"UTC","NORAD_CAT_ID":"48398","MEAN_MOTION":"15.06404684","EPHEMERIS_TYPE":"0","RA_OF_ASC_NODE":"88.6420","COUNTRY_CODE":"US","TLE_LINE2":"2 48398  53.0548  88.6420 0002021  53.4549 306.6626 15.06404684 59452","RCS_SIZE":"LARGE","FILE":"3459268","MEAN_MOTION_DOT":"0.00003347","REV_AT_EPOCH":"5945","PERIAPSIS":"545.800","REF_FRAME":"TEME","CLASSIFICATION_TYPE":"U","EPOCH":"2022-05-22T13:41:17.051136","INCLINATION":"53.0548","ARG_OF_PERICENTER":"53.4549","MEAN_ELEMENT_THEORY":"SGP4","OBJECT_TYPE":"PAYLOAD","PERIOD":"95.592","ECCENTRICITY":"0.00020210","MEAN_MOTION_DDOT":"0.0000000000000","LAUNCH_DATE":"2021-05-04"},{"REF_FRAME":"TEME","PERIAPSIS":"545.860","CLASSIFICATION_TYPE":"U","EPHEMERIS_TYPE":"0","RA_OF_ASC_NODE":"87.4756","TLE_LINE2":"2 48399  53.0546  87.4756 0001955  55.9381 304.1794 15.06399830 59484","COUNTRY_CODE":"US","REV_AT_EPOCH":"5948","FILE":"3459268","MEAN_MOTION_DOT":"0.00001531","RCS_SIZE":"LARGE","MEAN_ELEMENT_THEORY":"SGP4","PERIOD":"95.592","MEAN_MOTION_DDOT":"0.0000000000000","ECCENTRICITY":"0.00019550","OBJECT_TYPE":"PAYLOAD","LAUNCH_DATE":"2021-05-04","INCLINATION":"53.0546","EPOCH":"2022-05-22T19:58:08.056416","ARG_OF_PERICENTER":"55.9381","CENTER_NAME":"EARTH","GP_ID":"204281059","OBJECT_ID":"2021-038AY","TLE_LINE1":"1 48399U 21038AY  22142.83203769  .00001531  00000-0  12164-3 0  9993","SITE":"AFETR","TIME_SYSTEM":"UTC","NORAD_CAT_ID":"48399","MEAN_MOTION":"15.06399830","OBJECT_NAME":"STARLINK-2587","MEAN_ANOMALY":"304.1794","APOAPSIS":"548.568","DECAY_DATE":null,"BSTAR":"0.00012164000000","ELEMENT_SET_NO":"999","SEMIMAJOR_AXIS":"6925.349"},{"MEAN_MOTION":"15.06402881","NORAD_CAT_ID":"48400","TIME_SYSTEM":"UTC","ELEMENT_SET_NO":"999","SEMIMAJOR_AXIS":"6925.340","OBJECT_NAME":"STARLINK-2576","MEAN_ANOMALY":"322.8878","BSTAR":"0.00021783000000","DECAY_DATE":null,"APOAPSIS":"548.460","OBJECT_ID":"2021-038AZ","GP_ID":"204240920","CENTER_NAME":"EARTH","SITE":"AFETR","TLE_LINE1":"1 48400U 21038AZ  22142.56295925  .00002965  00000-0  21783-3 0  9990","LAUNCH_DATE":"2021-05-04","MEAN_MOTION_DDOT":"0.0000000000000","PERIOD":"95.592","ECCENTRICITY":"0.00018130","OBJECT_TYPE":"PAYLOAD","MEAN_ELEMENT_THEORY":"SGP4","ARG_OF_PERICENTER":"37.2237","INCLINATION":"53.0544","EPOCH":"2022-05-22T13:30:39.679200","CLASSIFICATION_TYPE":"U","PERIAPSIS":"545.949","REF_FRAME":"TEME","MEAN_MOTION_DOT":"0.00002965","FILE":"3458680","REV_AT_EPOCH":"5823","RCS_SIZE":"LARGE","TLE_LINE2":"2 48400  53.0544  88.6837 0001813  37.2237 322.8878 15.06402881 58237","COUNTRY_CODE":"US","RA_OF_ASC_NODE":"88.6837","EPHEMERIS_TYPE":"0"},{"SITE":"AFETR","TLE_LINE1":"1 48401U 21038BA  22142.26809826  .00005906  00000-0  41515-3 0  9992","GP_ID":"204241170","CENTER_NAME":"EARTH","OBJECT_ID":"2021-038BA","MEAN_ANOMALY":"309.3483","OBJECT_NAME":"STARLINK-2571","APOAPSIS":"548.628","DECAY_DATE":null,"BSTAR":"0.00041515000000","ELEMENT_SET_NO":"999","SEMIMAJOR_AXIS":"6925.375","NORAD_CAT_ID":"48401","TIME_SYSTEM":"UTC","MEAN_MOTION":"15.06391471","RA_OF_ASC_NODE":"90.0136","EPHEMERIS_TYPE":"0","FILE":"3458680","REV_AT_EPOCH":"5818","MEAN_MOTION_DOT":"0.00005906","RCS_SIZE":"LARGE","TLE_LINE2":"2 48401  53.0557  90.0136 0002005  50.7684 309.3483 15.06391471 58189","COUNTRY_CODE":"US","REF_FRAME":"TEME","PERIAPSIS":"545.851","CLASSIFICATION_TYPE":"U","INCLINATION":"53.0557","EPOCH":"2022-05-22T06:26:03.689664","ARG_OF_PERICENTER":"50.7684","MEAN_ELEMENT_THEORY":"SGP4","LAUNCH_DATE":"2021-05-04","ECCENTRICITY":"0.00020050","PERIOD":"95.593","MEAN_MOTION_DDOT":"0.0000000000000","OBJECT_TYPE":"PAYLOAD"},{"MEAN_ELEMENT_THEORY":"SGP4","ECCENTRICITY":"0.00019250","PERIOD":"95.592","MEAN_MOTION_DDOT":"0.0000000000000","OBJECT_TYPE":"PAYLOAD","LAUNCH_DATE":"2021-05-04","EPOCH":"2022-05-22T13:25:21.445536","INCLINATION":"53.0546","ARG_OF_PERICENTER":"56.7154","PERIAPSIS":"545.876","REF_FRAME":"TEME","CLASSIFICATION_TYPE":"U","EPHEMERIS_TYPE":"0","RA_OF_ASC_NODE":"88.6969","TLE_LINE2":"2 48402  53.0546  88.6969 0001925  56.7154 303.4019 15.06401334 58824","COUNTRY_CODE":"US","FILE":"3459042","REV_AT_EPOCH":"5882","MEAN_MOTION_DOT":"0.00001693","RCS_SIZE":"LARGE","TIME_SYSTEM":"UTC","NORAD_CAT_ID":"48402","MEAN_MOTION":"15.06401334","MEAN_ANOMALY":"303.4019","OBJECT_NAME":"STARLINK-2560","DECAY_DATE":null,"APOAPSIS":"548.543","BSTAR":"0.00013255000000","ELEMENT_SET_NO":"999","SEMIMAJOR_AXIS":"6925.344","CENTER_NAME":"EARTH","GP_ID":"204253417","OBJECT_ID":"2021-038BB","TLE_LINE1":"1 48402U 21038BB  22142.55927599  .00001693  00000-0  13255-3 0  9992","SITE":"AFETR"},{"MEAN_MOTION":"15.06394055","NORAD_CAT_ID":"48403","TIME_SYSTEM":"UTC","SEMIMAJOR_AXIS":"6925.367","ELEMENT_SET_NO":"999","APOAPSIS":"548.401","DECAY_DATE":null,"BSTAR":"0.00009756500000","OBJECT_NAME":"STARLINK-2561","MEAN_ANOMALY":"312.4838","OBJECT_ID":"2021-038BC","GP_ID":"204281558","CENTER_NAME":"EARTH","SITE":"AFETR","TLE_LINE1":"1 48403U 21038BC  22142.82098414  .00001172  00000-0  97565-4 0  9997","LAUNCH_DATE":"2021-05-04","OBJECT_TYPE":"PAYLOAD","ECCENTRICITY":"0.00016890","PERIOD":"95.593","MEAN_MOTION_DDOT":"0.0000000000000","MEAN_ELEMENT_THEORY":"SGP4","ARG_OF_PERICENTER":"47.6294","EPOCH":"2022-05-22T19:42:13.029696","INCLINATION":"53.0555","CLASSIFICATION_TYPE":"U","REF_FRAME":"TEME","PERIAPSIS":"546.062","RCS_SIZE":"LARGE","FILE":"3459268","MEAN_MOTION_DOT":"0.00001172","REV_AT_EPOCH":"5827","COUNTRY_CODE":"US","TLE_LINE2":"2 48403  53.0555  87.5162 0001689  47.6294 312.4838 15.06394055 58278","RA_OF_ASC_NODE":"87.5162","EPHEMERIS_TYPE":"0"},{"TLE_LINE2":"2 48404  53.0554  88.7316 0002034  56.7108 303.4076 15.06385056 58828","COUNTRY_CODE":"US","RCS_SIZE":"LARGE","FILE":"3459041","REV_AT_EPOCH":"5882","MEAN_MOTION_DOT":"0.00008756","EPHEMERIS_TYPE":"0","RA_OF_ASC_NODE":"88.7316","CLASSIFICATION_TYPE":"U","REF_FRAME":"TEME","PERIAPSIS":"545.851","ARG_OF_PERICENTER":"56.7108","INCLINATION":"53.0554","EPOCH":"2022-05-22T13:14:45.737664","OBJECT_TYPE":"PAYLOAD","PERIOD":"95.593","MEAN_MOTION_DDOT":"0.0000000000000","ECCENTRICITY":"0.00020340","LAUNCH_DATE":"2021-05-04","MEAN_ELEMENT_THEORY":"SGP4","TLE_LINE1":"1 48404U 21038BD  22142.55191826  .00008756  00000-0  60625-3 0  9990","SITE":"AFETR","OBJECT_ID":"2021-038BD","CENTER_NAME":"EARTH","GP_ID":"204253906","SEMIMAJOR_AXIS":"6925.394","ELEMENT_SET_NO":"999","APOAPSIS":"548.668","DECAY_DATE":null,"BSTAR":"0.00060625000000","OBJECT_NAME":"STARLINK-2593","MEAN_ANOMALY":"303.4076","MEAN_MOTION":"15.06385056","TIME_SYSTEM":"UTC","NORAD_CAT_ID":"48404"}];
